STARLINK-6131           
1 57107U 23090G   26029.60644730 -.00000390  00000+0 -13794-4 0  9994
2 57107  43.0028 127.0726 0001652 280.1060  79.9596 15.02536192144531
STARLINK-6099           
1 57108U 23090H   26030.28677182 -.00000337  00000+0 -98555-5 0  9998
2 57108  43.0033 123.5724 0001177 277.4852  82.5857 15.02530530144638
STARLINK-6139           
1 57109U 23090J   26030.27677399  .00001366  00000+0  11619-3 0  9993
2 57109  43.0033 123.5016 0001632 275.6064  84.4592 15.02539085144635
STARLINK-6134           
1 57110U 23090K   26030.28787000  .00002660  00000+0  21195-3 0  9995
2 57110  43.0030 123.5853 0001321 272.5296  87.5395 15.02521211144638
STARLINK-6140           
1 57111U 23090L   26029.59978339  .00000078  00000+0  20835-4 0  9997
2 57111  43.0019 127.0217 0001306 263.7851  96.2843 15.02539364144533
STARLINK-6141           
1 57112U 23090M   26030.28121124  .00001519  00000+0  12747-3 0  9991
2 57112  43.0025 123.5344 0001347 264.8292  95.2396 15.02537387144635
STARLINK-6142           
1 57113U 23090N   26030.27011990 -.00001000  00000+0 -58957-4 0  9991
2 57113  43.0027 123.4516 0001382 276.1408  83.9277 15.02530379144638
STARLINK-6125           
1 57114U 23090P   26030.26678920 -.00000728  00000+0 -38838-4 0  9995
2 57114  43.0023 123.4222 0001044 275.2503  84.8220 15.02531250144637
STARLINK-6085           
1 57115U 23090Q   26030.22691934  .00027239  00000+0  15870-2 0  9995
2 57115  42.9986 115.5099 0016476 313.3529  46.5943 15.11405263144726
STARLINK-6129           
1 57116U 23090R   26030.27345270 -.00008101  00000+0 -58474-3 0  9997
2 57116  43.0027 123.4748 0000928 263.0739  96.9998 15.02572014144631
STARLINK-6148           
1 57117U 23090S   26030.25790764 -.00000361  00000+0 -11644-4 0  9997
2 57117  43.0014 123.3573 0001055 270.2587  89.8135 15.02533766144620
STARLINK-6151           
1 57118U 23090T   26030.25002315  .00205027  00000+0  94780-3 0  9991
2 57118  42.9821  28.1939 0013723 115.6322 329.9443 15.82010462  6030
STARLINK-6150           
1 57119U 23090U   26030.25346898 -.00000125  00000+0  58321-5 0  9995
2 57119  43.0001 123.3231 0000621 252.5027 107.5747 15.02536748144630
STARLINK-6147           
1 57120U 23090V   26030.26010240  .00003815  00000+0  29711-3 0  9994
2 57120  43.0010 123.3748 0000185 148.1850 211.9003 15.02558840144636
STARLINK-6152           
1 57121U 23090W   26029.64627946  .00000223  00000+0  31553-4 0  9990
2 57121  43.0041 126.5061 0001399 286.0293  74.0395 15.02540990144353
STARLINK-6149           
1 57122U 23090X   26029.98422182 -.00000230  00000+0 -19346-5 0  9990
2 57122  43.0019 124.7439 0001109 271.8076  88.2639 15.02535527144592
