[{"OBJECT_NAME":"STARLINK-6131","OBJECT_ID":"2023-090G","EPOCH":"2026-01-29T14:33:17.046720","MEAN_MOTION":15.02536192,"ECCENTRICITY":0.00016522,"INCLINATION":43.0028,"RA_OF_ASC_NODE":127.0726,"ARG_OF_PERICENTER":280.106,"MEAN_ANOMALY":79.9596,"EPHEMERIS_TYPE":0,"CLASSIFICATION_TYPE":"U","NORAD_CAT_ID":57107,"ELEMENT_SET_NO":999,"REV_AT_EPOCH":14453,"BSTAR":-1.3793671e-5,"MEAN_MOTION_DOT":-3.9e-6,"MEAN_MOTION_DDOT":0},{"OBJECT_NAME":"STARLINK-6099","OBJECT_ID":"2023-090H","EPOCH":"2026-01-30T06:52:57.085248","MEAN_MOTION":15.0253053,"ECCENTRICITY":0.00011776,"INCLINATION":43.0033,"RA_OF_ASC_NODE":123.5724,"ARG_OF_PERICENTER":277.4852,"MEAN_ANOMALY":82.5857,"EPHEMERIS_TYPE":0,"CLASSIFICATION_TYPE":"U","NORAD_CAT_ID":57108,"ELEMENT_SET_NO":999,"REV_AT_EPOCH":14463,"BSTAR":-9.855528e-6,"MEAN_MOTION_DOT":-3.37e-6,"MEAN_MOTION_DDOT":0},{"OBJECT_NAME":"STARLINK-6139","OBJECT_ID":"2023-090J","EPOCH":"2026-01-30T06:38:33.272736","MEAN_MOTION":15.02539085,"ECCENTRICITY":0.00016325,"INCLINATION":43.0033,"RA_OF_ASC_NODE":123.5016,"ARG_OF_PERICENTER":275.6064,"MEAN_ANOMALY":84.4592,"EPHEMERIS_TYPE":0,"CLASSIFICATION_TYPE":"U","NORAD_CAT_ID":57109,"ELEMENT_SET_NO":999,"REV_AT_EPOCH":14463,"BSTAR":0.00011618676,"MEAN_MOTION_DOT":1.366e-5,"MEAN_MOTION_DDOT":0},{"OBJECT_NAME":"STARLINK-6134","OBJECT_ID":"2023-090K","EPOCH":"2026-01-30T06:54:31.968000","MEAN_MOTION":15.02521211,"ECCENTRICITY":0.00013213,"INCLINATION":43.003,"RA_OF_ASC_NODE":123.5853,"ARG_OF_PERICENTER":272.5296,"MEAN_ANOMALY":87.5395,"EPHEMERIS_TYPE":0,"CLASSIFICATION_TYPE":"U","NORAD_CAT_ID":57110,"ELEMENT_SET_NO":999,"REV_AT_EPOCH":14463,"BSTAR":0.00021195471,"MEAN_MOTION_DOT":2.66e-5,"MEAN_MOTION_DDOT":0},{"OBJECT_NAME":"STARLINK-6140","OBJECT_ID":"2023-090L","EPOCH":"2026-01-29T14:23:41.284896","MEAN_MOTION":15.02539364,"ECCENTRICITY":0.00013065,"INCLINATION":43.0019,"RA_OF_ASC_NODE":127.0217,"ARG_OF_PERICENTER":263.7851,"MEAN_ANOMALY":96.2843,"EPHEMERIS_TYPE":0,"CLASSIFICATION_TYPE":"U","NORAD_CAT_ID":57111,"ELEMENT_SET_NO":999,"REV_AT_EPOCH":14453,"BSTAR":2.0835038e-5,"MEAN_MOTION_DOT":7.8e-7,"MEAN_MOTION_DDOT":0},{"OBJECT_NAME":"STARLINK-6141","OBJECT_ID":"2023-090M","EPOCH":"2026-01-30T06:44:56.651136","MEAN_MOTION":15.02537387,"ECCENTRICITY":0.00013477,"INCLINATION":43.0025,"RA_OF_ASC_NODE":123.5344,"ARG_OF_PERICENTER":264.8292,"MEAN_ANOMALY":95.2396,"EPHEMERIS_TYPE":0,"CLASSIFICATION_TYPE":"U","NORAD_CAT_ID":57112,"ELEMENT_SET_NO":999,"REV_AT_EPOCH":14463,"BSTAR":0.0001274694,"MEAN_MOTION_DOT":1.519e-5,"MEAN_MOTION_DDOT":0},{"OBJECT_NAME":"STARLINK-6142","OBJECT_ID":"2023-090N","EPOCH":"2026-01-30T06:28:58.359360","MEAN_MOTION":15.02530379,"ECCENTRICITY":0.00013824,"INCLINATION":43.0027,"RA_OF_ASC_NODE":123.4516,"ARG_OF_PERICENTER":276.1408,"MEAN_ANOMALY":83.9277,"EPHEMERIS_TYPE":0,"CLASSIFICATION_TYPE":"U","NORAD_CAT_ID":57113,"ELEMENT_SET_NO":999,"REV_AT_EPOCH":14463,"BSTAR":-5.8956868e-5,"MEAN_MOTION_DOT":-1.0e-5,"MEAN_MOTION_DDOT":0},{"OBJECT_NAME":"STARLINK-6125","OBJECT_ID":"2023-090P","EPOCH":"2026-01-30T06:24:10.586880","MEAN_MOTION":15.0253125,"ECCENTRICITY":0.00010442,"INCLINATION":43.0023,"RA_OF_ASC_NODE":123.4222,"ARG_OF_PERICENTER":275.2503,"MEAN_ANOMALY":84.822,"EPHEMERIS_TYPE":0,"CLASSIFICATION_TYPE":"U","NORAD_CAT_ID":57114,"ELEMENT_SET_NO":999,"REV_AT_EPOCH":14463,"BSTAR":-3.8837759e-5,"MEAN_MOTION_DOT":-7.28e-6,"MEAN_MOTION_DDOT":0},{"OBJECT_NAME":"STARLINK-6085","OBJECT_ID":"2023-090Q","EPOCH":"2026-01-30T05:26:45.830976","MEAN_MOTION":15.11405263,"ECCENTRICITY":0.00164769,"INCLINATION":42.9986,"RA_OF_ASC_NODE":115.5099,"ARG_OF_PERICENTER":313.3529,"MEAN_ANOMALY":46.5943,"EPHEMERIS_TYPE":0,"CLASSIFICATION_TYPE":"U","NORAD_CAT_ID":57115,"ELEMENT_SET_NO":999,"REV_AT_EPOCH":14472,"BSTAR":0.0015869518,"MEAN_MOTION_DOT":0.00027239,"MEAN_MOTION_DDOT":0},{"OBJECT_NAME":"STARLINK-6129","OBJECT_ID":"2023-090R","EPOCH":"2026-01-30T06:33:46.313280","MEAN_MOTION":15.02572014,"ECCENTRICITY":9.288e-5,"INCLINATION":43.0027,"RA_OF_ASC_NODE":123.4748,"ARG_OF_PERICENTER":263.0739,"MEAN_ANOMALY":96.9998,"EPHEMERIS_TYPE":0,"CLASSIFICATION_TYPE":"U","NORAD_CAT_ID":57116,"ELEMENT_SET_NO":999,"REV_AT_EPOCH":14463,"BSTAR":-0.00058473812,"MEAN_MOTION_DOT":-8.101e-5,"MEAN_MOTION_DDOT":0},{"OBJECT_NAME":"STARLINK-6148","OBJECT_ID":"2023-090S","EPOCH":"2026-01-30T06:11:23.220096","MEAN_MOTION":15.02533766,"ECCENTRICITY":0.00010556,"INCLINATION":43.0014,"RA_OF_ASC_NODE":123.3573,"ARG_OF_PERICENTER":270.2587,"MEAN_ANOMALY":89.8135,"EPHEMERIS_TYPE":0,"CLASSIFICATION_TYPE":"U","NORAD_CAT_ID":57117,"ELEMENT_SET_NO":999,"REV_AT_EPOCH":14462,"BSTAR":-1.164429e-5,"MEAN_MOTION_DOT":-3.61e-6,"MEAN_MOTION_DDOT":0},{"OBJECT_NAME":"STARLINK-6151","OBJECT_ID":"2023-090T","EPOCH":"2026-01-30T06:00:02.000160","MEAN_MOTION":15.82010462,"ECCENTRICITY":0.00137234,"INCLINATION":42.9821,"RA_OF_ASC_NODE":28.1939,"ARG_OF_PERICENTER":115.6322,"MEAN_ANOMALY":329.9443,"EPHEMERIS_TYPE":0,"CLASSIFICATION_TYPE":"U","NORAD_CAT_ID":57118,"ELEMENT_SET_NO":999,"REV_AT_EPOCH":603,"BSTAR":0.0009478046,"MEAN_MOTION_DOT":0.00205027,"MEAN_MOTION_DDOT":0},{"OBJECT_NAME":"STARLINK-6150","OBJECT_ID":"2023-090U","EPOCH":"2026-01-30T06:04:59.719872","MEAN_MOTION":15.02536748,"ECCENTRICITY":6.216e-5,"INCLINATION":43.0001,"RA_OF_ASC_NODE":123.3231,"ARG_OF_PERICENTER":252.5027,"MEAN_ANOMALY":107.5747,"EPHEMERIS_TYPE":0,"CLASSIFICATION_TYPE":"U","NORAD_CAT_ID":57119,"ELEMENT_SET_NO":999,"REV_AT_EPOCH":14463,"BSTAR":5.832124e-6,"MEAN_MOTION_DOT":-1.25e-6,"MEAN_MOTION_DDOT":0},{"OBJECT_NAME":"STARLINK-6147","OBJECT_ID":"2023-090V","EPOCH":"2026-01-30T06:14:32.847360","MEAN_MOTION":15.0255884,"ECCENTRICITY":1.85e-5,"INCLINATION":43.001,"RA_OF_ASC_NODE":123.3748,"ARG_OF_PERICENTER":148.185,"MEAN_ANOMALY":211.9003,"EPHEMERIS_TYPE":0,"CLASSIFICATION_TYPE":"U","NORAD_CAT_ID":57120,"ELEMENT_SET_NO":999,"REV_AT_EPOCH":14463,"BSTAR":0.0002971097,"MEAN_MOTION_DOT":3.815e-5,"MEAN_MOTION_DDOT":0},{"OBJECT_NAME":"STARLINK-6152","OBJECT_ID":"2023-090W","EPOCH":"2026-01-29T15:30:38.545344","MEAN_MOTION":15.0254099,"ECCENTRICITY":0.00013997,"INCLINATION":43.0041,"RA_OF_ASC_NODE":126.5061,"ARG_OF_PERICENTER":286.0293,"MEAN_ANOMALY":74.0395,"EPHEMERIS_TYPE":0,"CLASSIFICATION_TYPE":"U","NORAD_CAT_ID":57121,"ELEMENT_SET_NO":999,"REV_AT_EPOCH":14435,"BSTAR":3.1552787e-5,"MEAN_MOTION_DOT":2.23e-6,"MEAN_MOTION_DDOT":0},{"OBJECT_NAME":"STARLINK-6149","OBJECT_ID":"2023-090X","EPOCH":"2026-01-29T23:37:16.765248","MEAN_MOTION":15.02535527,"ECCENTRICITY":0.00011098,"INCLINATION":43.0019,"RA_OF_ASC_NODE":124.7439,"ARG_OF_PERICENTER":271.8076,"MEAN_ANOMALY":88.2639,"EPHEMERIS_TYPE":0,"CLASSIFICATION_TYPE":"U","NORAD_CAT_ID":57122,"ELEMENT_SET_NO":999,"REV_AT_EPOCH":14459,"BSTAR":-1.934618e-6,"MEAN_MOTION_DOT":-2.3e-6,"MEAN_MOTION_DDOT":0}]
